{"type":"FeatureCollection","features":[{"type":"Feature","properties":{"name":"National University of Singapore","osmId":"54519165"},"geometry":{"type":"Polygon","coordinates":[[[103.773501,1.2922874],[103.7727918,1.2924091],[103.7715644,1.292415],[103.7705301,1.29242],[103.7704693,1.2924963],[103.7704318,1.2925884],[103.7702723,1.2926377],[103.7701924,1.2926619],[103.7700448,1.292709],[103.7699949,1.29275],[103.7699774,1.2927691],[103.769665,1.2931096],[103.76916,1.2935935],[103.7695108,1.2937531],[103.769631,1.2937483],[103.7697218,1.2937446],[103.7698863,1.2941608],[103.7700255,1.2945132],[103.7700121,1.2945363],[103.7700074,1.294544],[103.7700019,1.2945545],[103.7697979,1.2949007],[103.7698383,1.2954271],[103.7698355,1.2960217],[103.7698891,1.2969763],[103.7699802,1.2982082],[103.7700553,1.2994739],[103.7700875,1.3000424],[103.7702215,1.300499],[103.7702543,1.3005897],[103.7703235,1.3009326],[103.7704774,1.3013231],[103.7701939,1.301446],[103.7703544,1.3017662],[103.770684,1.3016264],[103.7707611,1.3017747],[103.7710489,1.3023286],[103.7712569,1.302484],[103.7715932,1.3025389],[103.7718425,1.3025662],[103.7721235,1.3026465],[103.7724853,1.3027514],[103.7727468,1.3027873],[103.773117,1.3027047],[103.7735958,1.3025308],[103.7738746,1.302414],[103.7738103,1.3026528],[103.7738021,1.3028633],[103.7739978,1.3027494],[103.7740214,1.3025479],[103.7740977,1.3023204],[103.7743206,1.302227],[103.774894,1.3019194],[103.7756665,1.3014797],[103.7769894,1.3007375],[103.7778122,1.3002783],[103.7784452,1.2998815],[103.7806661,1.2985622],[103.7821893,1.2977188],[103.7824712,1.2975578],[103.7829052,1.2972649],[103.7833824,1.2968451],[103.7838275,1.2963819],[103.7844581,1.2954506],[103.7848114,1.2949729],[103.7852182,1.2943435],[103.7854631,1.2939464],[103.7854576,1.2937652],[103.7853925,1.2936218],[103.7849046,1.2931121],[103.784568,1.292745],[103.7842494,1.2924571],[103.7834586,1.2917659],[103.7834058,1.2915243],[103.7832007,1.2913156],[103.7829874,1.2911082],[103.7829109,1.2910322],[103.7828883,1.2910097],[103.7828118,1.2909311],[103.7826199,1.290734],[103.7822433,1.2903352],[103.7817819,1.2899706],[103.7809665,1.2897668],[103.7808736,1.2897582],[103.7805078,1.2897244],[103.7804004,1.2897145],[103.7802691,1.2897024],[103.7800724,1.2899609],[103.7793179,1.2909521],[103.7787675,1.2905066],[103.7785755,1.2904655],[103.7783862,1.2901891],[103.7780572,1.2901162],[103.7776965,1.2901812],[103.7771932,1.2904034],[103.7769031,1.2905458],[103.776692,1.2906605],[103.7764483,1.2907075],[103.7760816,1.290792],[103.7758018,1.2908648],[103.775407,1.2909674],[103.7751983,1.2910463],[103.7748063,1.2912134],[103.7741617,1.2914844],[103.7733812,1.2918583],[103.773501,1.2922874]]]}},{"type":"Feature","properties":{"name":"University Town","osmId":"92357946"},"geometry":{"type":"Polygon","coordinates":[[[103.7761324,1.3037337],[103.7760901,1.303753],[103.7751423,1.3041857],[103.7751277,1.3041924],[103.7745591,1.3046644],[103.7743911,1.3054162],[103.7746085,1.305673],[103.7748179,1.3058087],[103.7748857,1.3059816],[103.7748962,1.3061],[103.7748851,1.3062364],[103.7748537,1.3063499],[103.7746642,1.3065503],[103.7744663,1.3066726],[103.774251,1.3067614],[103.7738395,1.3068475],[103.7737616,1.306975],[103.7735173,1.3073748],[103.7736875,1.3079606],[103.7737011,1.3082086],[103.7737101,1.3083724],[103.7735893,1.3085322],[103.7734624,1.3085957],[103.7725964,1.3088965],[103.7720247,1.309332],[103.7717454,1.3076813],[103.7716079,1.3068567],[103.7715228,1.3060373],[103.7716327,1.3053274],[103.7716838,1.3049969],[103.7717954,1.3046437],[103.7718262,1.3045618],[103.7719214,1.3043082],[103.7721691,1.3041656],[103.7738945,1.3031109],[103.7738472,1.3030216],[103.7738021,1.3028633],[103.7739978,1.3027494],[103.774,1.3029333],[103.7740333,1.3030261],[103.7742695,1.3028929],[103.7748077,1.3026178],[103.774931,1.3032642],[103.7749679,1.3034579],[103.7754669,1.3035761],[103.7761324,1.3037337]]]}},{"type":"Feature","properties":{"name":"NUS College","osmId":"125845194"},"geometry":{"type":"Polygon","coordinates":[[[103.7725792,1.3065186],[103.772607,1.3066235],[103.7726409,1.3066789],[103.772752,1.3067271],[103.7728092,1.3067864],[103.7728135,1.3069277],[103.7728006,1.3073765],[103.7727685,1.3074541],[103.7728456,1.3078869],[103.7727183,1.3081548],[103.7727621,1.3084947],[103.7727981,1.3085853],[103.7727829,1.3086413],[103.7727069,1.3086904],[103.7726182,1.3087247],[103.7725471,1.3087408],[103.7724693,1.3087595],[103.7723915,1.3087756],[103.7723285,1.3087837],[103.7722346,1.3087864],[103.772193,1.308781],[103.7721434,1.3087408],[103.7721246,1.3087113],[103.7720991,1.3086603],[103.7720764,1.3085799],[103.7720361,1.3083841],[103.771894,1.3077098],[103.7718456,1.3073691],[103.7718108,1.3071238],[103.7717478,1.3067015],[103.7716628,1.3060478],[103.7716697,1.3055817],[103.7716972,1.3055033],[103.7717811,1.305469],[103.7722475,1.305475],[103.7723095,1.3054761],[103.7723683,1.3055163],[103.7723967,1.3055667],[103.7723982,1.3056177],[103.77241,1.3057417],[103.7724848,1.3058223],[103.7724983,1.3060137],[103.7725792,1.3065186]]]}},{"type":"Feature","properties":{"name":"National University of Singapore (Bukit Timah)","osmId":"372072208"},"geometry":{"type":"Polygon","coordinates":[[[103.8177115,1.3199518],[103.8178352,1.3199496],[103.817884,1.3199586],[103.8179831,1.3199525],[103.8181959,1.3199395],[103.8183535,1.3201051],[103.8184902,1.3204195],[103.818533,1.3205237],[103.8185934,1.3206145],[103.8186711,1.3206913],[103.8187596,1.320757],[103.819152,1.3209345],[103.8193899,1.3210881],[103.8195367,1.3212465],[103.8197198,1.3215041],[103.8207791,1.3210489],[103.8202394,1.3197485],[103.819992,1.3191522],[103.8193207,1.319419],[103.8190504,1.3195264],[103.8189702,1.3195583],[103.8188841,1.3195925],[103.8187087,1.3194953],[103.8186564,1.3194444],[103.8186287,1.3193737],[103.8186054,1.3190931],[103.8185697,1.3190487],[103.818423,1.3188659],[103.8179845,1.318408],[103.8173673,1.3179241],[103.8172031,1.317845],[103.8170819,1.3178435],[103.8168928,1.3178904],[103.8166829,1.318043],[103.8165079,1.3182618],[103.8162779,1.3186614],[103.816271,1.3187019],[103.8162661,1.3188201],[103.8162937,1.3188657],[103.816755,1.3192702],[103.8168486,1.3193523],[103.817275,1.3196844],[103.8177115,1.3199518]]]}}]}